{
  "norad_id": 43567,
  "name": "GSAT0220 (GALILEO 24)",
  "history": [
    {
      "epoch": "2026-03-27T00:25:57.912960",
      "apogee_km": 23235.275597818647,
      "perigee_km": 23208.81895311323,
      "latitude_deg": 55.60402022603951,
      "longitude_deg": -117.56898560002446,
      "semi_major_axis_km": 29600.184275465937,
      "eccentricity": 0.0004469,
      "inclination_deg": 57.1973,
      "raan_deg": 344.0063,
      "arg_perigee_deg": 319.2855,
      "mean_anomaly_deg": 40.7149,
      "mean_motion_rev_day": 1.70475173
    }
  ]
}